{"type": "FeatureCollection", "features": [{"type": "Feature", "properties": {"norad_id": 36828, "name": "BEIDOU-2 IGSO-1 (C06)", "group": "beidou", "lat": -2.490788280963144, "lon": -13.677385338124429, "alt_km": 35599.56406280907, "timestamp": "2025-12-24T09:46:31.269171+00:00", "meta": {"OBJECT_NAME": "BEIDOU-2 IGSO-1 (C06)", "OBJECT_ID": "2010-036A", "EPOCH": "2025-12-20T21:47:26.739168", "MEAN_MOTION": 1.00282395, "ECCENTRICITY": 0.0051798, "INCLINATION": 54.2882, "RA_OF_ASC_NODE": 164.5739, "ARG_OF_PERICENTER": 215.2932, "MEAN_ANOMALY": 144.6604, "EPHEMERIS_TYPE": 0, "CLASSIFICATION_TYPE": "U", "NORAD_CAT_ID": 36828, "ELEMENT_SET_NO": 999, "REV_AT_EPOCH": 5631, "BSTAR": 0, "MEAN_MOTION_DOT": -5.5e-07, "MEAN_MOTION_DDOT": 0}, "tle": {"line1": "1 36828U 10036A   25354.90794837 -.00000055  00000+0  00000+0 0  9992", "line2": "2 36828  54.2882 164.5739 0051798 215.2932 144.6604  1.00282395 56317"}}, "geometry": {"type": "Point", "coordinates": [-13.677385338124429, -2.490788280963144]}}, {"type": "Feature", "properties": {"norad_id": 37210, "name": "BEIDOU-2 G4 (C04)", "group": "beidou", "lat": -1.5935326537180279, "lon": 40.014853982693566, "alt_km": 35818.07918635465, "timestamp": "2025-12-24T09:46:31.269194+00:00", "meta": {"OBJECT_NAME": "BEIDOU-2 G4 (C04)", "OBJECT_ID": "2010-057A", "EPOCH": "2025-12-24T05:12:23.450976", "MEAN_MOTION": 1.00271665, "ECCENTRICITY": 0.00104, "INCLINATION": 3.2112, "RA_OF_ASC_NODE": 69.8951, "ARG_OF_PERICENTER": 193.7967, "MEAN_ANOMALY": 67.4859, "EPHEMERIS_TYPE": 0, "CLASSIFICATION_TYPE": "U", "NORAD_CAT_ID": 37210, "ELEMENT_SET_NO": 999, "REV_AT_EPOCH": 5553, "BSTAR": 0, "MEAN_MOTION_DOT": -9.2e-07, "MEAN_MOTION_DDOT": 0}, "tle": {"line1": "1 37210U 10057A   25358.21693809 -.00000092  00000+0  00000+0 0  9997", "line2": "2 37210   3.2112  69.8951 0010400 193.7967  67.4859  1.00271665 55534"}}, "geometry": {"type": "Point", "coordinates": [40.014853982693566, -1.5935326537180279]}}, {"type": "Feature", "properties": {"norad_id": 37256, "name": "BEIDOU-2 IGSO-2 (C07)", "group": "beidou", "lat": 45.33924875797984, "lon": -19.888405925339256, "alt_km": 35940.56371318393, "timestamp": "2025-12-24T09:46:31.269209+00:00", "meta": {"OBJECT_NAME": "BEIDOU-2 IGSO-2 (C07)", "OBJECT_ID": "2010-068A", "EPOCH": "2025-12-23T17:03:51.690816", "MEAN_MOTION": 1.00283101, "ECCENTRICITY": 0.00485637, "INCLINATION": 47.8659, "RA_OF_ASC_NODE": 274.0149, "ARG_OF_PERICENTER": 216.3394, "MEAN_ANOMALY": 326.1369, "EPHEMERIS_TYPE": 0, "CLASSIFICATION_TYPE": "U", "NORAD_CAT_ID": 37256, "ELEMENT_SET_NO": 999, "REV_AT_EPOCH": 5503, "BSTAR": 0, "MEAN_MOTION_DOT": -1.88e-06, "MEAN_MOTION_DDOT": 0}, "tle": {"line1": "1 37256U 10068A   25357.71101494 -.00000188  00000+0  00000+0 0  9993", "line2": "2 37256  47.8659 274.0149 0048563 216.3394 326.1369  1.00283101 55034"}}, "geometry": {"type": "Point", "coordinates": [-19.888405925339256, 45.33924875797984]}}, {"type": "Feature", "properties": {"norad_id": 37384, "name": "BEIDOU-2 IGSO-3 (C08)", "group": "beidou", "lat": -46.01559612126387, "lon": 8.653119841192472, "alt_km": 35861.765432365835, "timestamp": "2025-12-24T09:46:31.269222+00:00", "meta": {"OBJECT_NAME": "BEIDOU-2 IGSO-3 (C08)", "OBJECT_ID": "2011-013A", "EPOCH": "2025-12-23T13:38:13.451136", "MEAN_MOTION": 1.00268394, "ECCENTRICITY": 0.00353473, "INCLINATION": 62.1571, "RA_OF_ASC_NODE": 41.8137, "ARG_OF_PERICENTER": 187.6149, "MEAN_ANOMALY": 174.7745, "EPHEMERIS_TYPE": 0, "CLASSIFICATION_TYPE": "U", "NORAD_CAT_ID": 37384, "ELEMENT_SET_NO": 999, "REV_AT_EPOCH": 5390, "BSTAR": 0, "MEAN_MOTION_DOT": -1.6e-06, "MEAN_MOTION_DDOT": 0}, "tle": {"line1": "1 37384U 11013A   25357.56821124 -.00000160  00000+0  00000+0 0  9998", "line2": "2 37384  62.1571  41.8137 0035347 187.6149 174.7745  1.00268394 53906"}}, "geometry": {"type": "Point", "coordinates": [8.653119841192472, -46.01559612126387]}}, {"type": "Feature", "properties": {"norad_id": 37763, "name": "BEIDOU-2 IGSO-4 (C09)", "group": "beidou", "lat": 11.515271879860006, "lon": -21.113736242733218, "alt_km": 35503.28516463185, "timestamp": "2025-12-24T09:46:31.269234+00:00", "meta": {"OBJECT_NAME": "BEIDOU-2 IGSO-4 (C09)", "OBJECT_ID": "2011-038A", "EPOCH": "2025-12-21T10:06:26.864064", "MEAN_MOTION": 1.00280083, "ECCENTRICITY": 0.01491557, "INCLINATION": 54.5854, "RA_OF_ASC_NODE": 167.2693, "ARG_OF_PERICENTER": 230.0944, "MEAN_ANOMALY": 299.1265, "EPHEMERIS_TYPE": 0, "CLASSIFICATION_TYPE": "U", "NORAD_CAT_ID": 37763, "ELEMENT_SET_NO": 999, "REV_AT_EPOCH": 5286, "BSTAR": 0, "MEAN_MOTION_DOT": 5.9e-07, "MEAN_MOTION_DDOT": 0}, "tle": {"line1": "1 37763U 11038A   25355.42114426  .00000059  00000+0  00000+0 0  9995", "line2": "2 37763  54.5854 167.2693 0149155 230.0944 299.1265  1.00280083 52867"}}, "geometry": {"type": "Point", "coordinates": [-21.113736242733218, 11.515271879860006]}}, {"type": "Feature", "properties": {"norad_id": 37948, "name": "BEIDOU-2 IGSO-5 (C10)", "group": "beidou", "lat": 39.73694697807861, "lon": -37.901803172802325, "alt_km": 36218.17234007254, "timestamp": "2025-12-24T09:46:31.269247+00:00", "meta": {"OBJECT_NAME": "BEIDOU-2 IGSO-5 (C10)", "OBJECT_ID": "2011-073A", "EPOCH": "2025-12-23T15:38:27.014784", "MEAN_MOTION": 1.00288757, "ECCENTRICITY": 0.01097443, "INCLINATION": 47.9999, "RA_OF_ASC_NODE": 273.7252, "ARG_OF_PERICENTER": 222.2004, "MEAN_ANOMALY": 284.7176, "EPHEMERIS_TYPE": 0, "CLASSIFICATION_TYPE": "U", "NORAD_CAT_ID": 37948, "ELEMENT_SET_NO": 999, "REV_AT_EPOCH": 5137, "BSTAR": 0, "MEAN_MOTION_DOT": -1.38e-06, "MEAN_MOTION_DDOT": 0}, "tle": {"line1": "1 37948U 11073A   25357.65170156 -.00000138  00000+0  00000+0 0  9997", "line2": "2 37948  47.9999 273.7252 0109744 222.2004 284.7176  1.00288757 51374"}}, "geometry": {"type": "Point", "coordinates": [-37.901803172802325, 39.73694697807861]}}, {"type": "Feature", "properties": {"norad_id": 38091, "name": "BEIDOU-2 G5 (C05)", "group": "beidou", "lat": -2.346695480879074, "lon": -61.50509064187192, "alt_km": 35731.841003281326, "timestamp": "2025-12-24T09:46:31.269276+00:00", "meta": {"OBJECT_NAME": "BEIDOU-2 G5 (C05)", "OBJECT_ID": "2012-008A", "EPOCH": "2025-12-24T02:18:38.733696", "MEAN_MOTION": 1.00269743, "ECCENTRICITY": 0.0013065, "INCLINATION": 3.1357, "RA_OF_ASC_NODE": 70.6677, "ARG_OF_PERICENTER": 232.1361, "MEAN_ANOMALY": 243.4747, "EPHEMERIS_TYPE": 0, "CLASSIFICATION_TYPE": "U", "NORAD_CAT_ID": 38091, "ELEMENT_SET_NO": 999, "REV_AT_EPOCH": 5061, "BSTAR": 0, "MEAN_MOTION_DOT": 7.7e-07, "MEAN_MOTION_DDOT": 0}, "tle": {"line1": "1 38091U 12008A   25358.09628164  .00000077  00000+0  00000+0 0  9993", "line2": "2 38091   3.1357  70.6677 0013065 232.1361 243.4747  1.00269743 50613"}}, "geometry": {"type": "Point", "coordinates": [-61.50509064187192, -2.346695480879074]}}, {"type": "Feature", "properties": {"norad_id": 38250, "name": "BEIDOU-2 M3 (C11)", "group": "beidou", "lat": 1.2417400166455832, "lon": 129.9065955824277, "alt_km": 21536.34757360329, "timestamp": "2025-12-24T09:46:31.269302+00:00", "meta": {"OBJECT_NAME": "BEIDOU-2 M3 (C11)", "OBJECT_ID": "2012-018A", "EPOCH": "2025-12-23T14:28:50.284992", "MEAN_MOTION": 1.86230163, "ECCENTRICITY": 0.00241022, "INCLINATION": 55.911, "RA_OF_ASC_NODE": 310.7927, "ARG_OF_PERICENTER": 275.3746, "MEAN_ANOMALY": 84.3517, "EPHEMERIS_TYPE": 0, "CLASSIFICATION_TYPE": "U", "NORAD_CAT_ID": 38250, "ELEMENT_SET_NO": 999, "REV_AT_EPOCH": 9267, "BSTAR": 0, "MEAN_MOTION_DOT": -5.4e-07, "MEAN_MOTION_DDOT": 0}, "tle": {"line1": "1 38250U 12018A   25357.60335978 -.00000054  00000+0  00000+0 0  9991", "line2": "2 38250  55.9110 310.7927 0024102 275.3746  84.3517  1.86230163 92675"}}, "geometry": {"type": "Point", "coordinates": [129.9065955824277, 1.2417400166455832]}}, {"type": "Feature", "properties": {"norad_id": 38251, "name": "BEIDOU-2 M4 (C12)", "group": "beidou", "lat": -35.275244091325554, "lon": 158.68300544342964, "alt_km": 21508.088993817757, "timestamp": "2025-12-24T09:46:31.269315+00:00", "meta": {"OBJECT_NAME": "BEIDOU-2 M4 (C12)", "OBJECT_ID": "2012-018B", "EPOCH": "2025-12-21T22:11:20.549760", "MEAN_MOTION": 1.86229896, "ECCENTRICITY": 0.00152556, "INCLINATION": 55.8135, "RA_OF_ASC_NODE": 310.0771, "ARG_OF_PERICENTER": 279.1681, "MEAN_ANOMALY": 80.6551, "EPHEMERIS_TYPE": 0, "CLASSIFICATION_TYPE": "U", "NORAD_CAT_ID": 38251, "ELEMENT_SET_NO": 999, "REV_AT_EPOCH": 9264, "BSTAR": 0, "MEAN_MOTION_DOT": -6e-07, "MEAN_MOTION_DDOT": 0}, "tle": {"line1": "1 38251U 12018B   25355.92454340 -.00000060  00000+0  00000+0 0  9997", "line2": "2 38251  55.8135 310.0771 0015255 279.1681  80.6551  1.86229896 92646"}}, "geometry": {"type": "Point", "coordinates": [158.68300544342964, -35.275244091325554]}}, {"type": "Feature", "properties": {"norad_id": 38775, "name": "BEIDOU-2 M6 (C14)", "group": "beidou", "lat": 45.25398231591309, "lon": 110.78048624955608, "alt_km": 21514.49302537179, "timestamp": "2025-12-24T09:46:31.269327+00:00", "meta": {"OBJECT_NAME": "BEIDOU-2 M6 (C14)", "OBJECT_ID": "2012-050B", "EPOCH": "2025-12-23T05:54:39.234816", "MEAN_MOTION": 1.86230862, "ECCENTRICITY": 0.00114449, "INCLINATION": 56.3871, "RA_OF_ASC_NODE": 68.7189, "ARG_OF_PERICENTER": 343.1863, "MEAN_ANOMALY": 16.829, "EPHEMERIS_TYPE": 0, "CLASSIFICATION_TYPE": "U", "NORAD_CAT_ID": 38775, "ELEMENT_SET_NO": 999, "REV_AT_EPOCH": 9003, "BSTAR": 0, "MEAN_MOTION_DOT": -2.5e-07, "MEAN_MOTION_DDOT": 0}, "tle": {"line1": "1 38775U 12050B   25357.24628744 -.00000025  00000+0  00000+0 0  9993", "line2": "2 38775  56.3871  68.7189 0011444 343.1863  16.8290  1.86230862 90037"}}, "geometry": {"type": "Point", "coordinates": [110.78048624955608, 45.25398231591309]}}]}